[{"OBJECT_NAME":"STARLINK-2389","OBJECT_ID":"2021-018X","EPOCH":"2026-03-09T18:22:15.529728","MEAN_MOTION":15.30215275,"ECCENTRICITY":8.996e-5,"INCLINATION":53.1603,"RA_OF_ASC_NODE":242.3189,"ARG_OF_PERICENTER":87.9429,"MEAN_ANOMALY":272.1675,"EPHEMERIS_TYPE":0,"CLASSIFICATION_TYPE":"U","NORAD_CAT_ID":47808,"ELEMENT_SET_NO":999,"REV_AT_EPOCH":27679,"BSTAR":0.0005682064,"MEAN_MOTION_DOT":0.00016515,"MEAN_MOTION_DDOT":0},{"OBJECT_NAME":"NOAA 17 DEB","OBJECT_ID":"2002-032DK","EPOCH":"2026-03-06T06:53:22.349472","MEAN_MOTION":15.29547844,"ECCENTRICITY":0.00135803,"INCLINATION":98.6735,"RA_OF_ASC_NODE":77.6727,"ARG_OF_PERICENTER":131.2945,"MEAN_ANOMALY":228.9463,"EPHEMERIS_TYPE":0,"CLASSIFICATION_TYPE":"U","NORAD_CAT_ID":49481,"ELEMENT_SET_NO":999,"REV_AT_EPOCH":24998,"BSTAR":0.011623019,"MEAN_MOTION_DOT":0.00349096,"MEAN_MOTION_DDOT":0}]
